2025-274N               
1 66662U 25274N   25332.79719627  .00001043  00000+0  10553-3 0  9993
2 66662  97.7379 260.2478 0014663 332.0496  27.9935 14.93056237   326
KSLV-II R/B             
1 66663U 25274P   25332.25598398  .00001870  00000+0  16348-3 0  9991
2 66663  97.7400 259.7351 0045467   6.3451 353.8337 14.97233772   246
SOYUZ-MS 28             
1 66664U 25275A   25332.54438814  .00008991  00000+0  17015-3 0  9994
2 66664  51.6312 212.7497 0003745 179.2752 180.8242 15.49168962   244
SL-4 R/B                
1 66665U 25275B   25333.16417802  .06336541  12424-4  50829-3 0  9997
2 66665  51.6512 208.7046 0008837  66.1669 294.0283 16.39030002   303
