CCSDS_OMM_VERS = 2.0
CREATION_DATE  = 
ORIGINATOR     = 

OBJECT_NAME    = 2025-274N
OBJECT_ID      = 2025-274N
CENTER_NAME    = EARTH
REF_FRAME      = TEME
TIME_SYSTEM    = UTC
MEAN_ELEMENT_THEORY = SGP/SGP4

EPOCH          = 2025-11-28T19:07:57.757728
MEAN_MOTION    = 14.93056237
ECCENTRICITY   = .0014663
INCLINATION    = 97.7379
RA_OF_ASC_NODE = 260.2478
ARG_OF_PERICENTER = 332.0496
MEAN_ANOMALY   = 27.9935

EPHEMERIS_TYPE = 0
CLASSIFICATION_TYPE = U
NORAD_CAT_ID   = 66662
ELEMENT_SET_NO = 999
REV_AT_EPOCH   = 32
BSTAR          = .10553E-3
MEAN_MOTION_DOT = .1043E-4
MEAN_MOTION_DDOT = 0

CCSDS_OMM_VERS = 2.0
CREATION_DATE  = 
ORIGINATOR     = 

OBJECT_NAME    = KSLV-II R/B
OBJECT_ID      = 2025-274P
CENTER_NAME    = EARTH
REF_FRAME      = TEME
TIME_SYSTEM    = UTC
MEAN_ELEMENT_THEORY = SGP/SGP4

EPOCH          = 2025-11-28T06:08:37.015872
MEAN_MOTION    = 14.97233772
ECCENTRICITY   = .0045467
INCLINATION    = 97.7400
RA_OF_ASC_NODE = 259.7351
ARG_OF_PERICENTER = 6.3451
MEAN_ANOMALY   = 353.8337

EPHEMERIS_TYPE = 0
CLASSIFICATION_TYPE = U
NORAD_CAT_ID   = 66663
ELEMENT_SET_NO = 999
REV_AT_EPOCH   = 24
BSTAR          = .16348E-3
MEAN_MOTION_DOT = .187E-4
MEAN_MOTION_DDOT = 0

CCSDS_OMM_VERS = 2.0
CREATION_DATE  = 
ORIGINATOR     = 

OBJECT_NAME    = SOYUZ-MS 28
OBJECT_ID      = 2025-275A
CENTER_NAME    = EARTH
REF_FRAME      = TEME
TIME_SYSTEM    = UTC
MEAN_ELEMENT_THEORY = SGP/SGP4

EPOCH          = 2025-11-28T13:03:55.135296
MEAN_MOTION    = 15.49168962
ECCENTRICITY   = .00037452
INCLINATION    = 51.6312
RA_OF_ASC_NODE = 212.7497
ARG_OF_PERICENTER = 179.2752
MEAN_ANOMALY   = 180.8242

EPHEMERIS_TYPE = 0
CLASSIFICATION_TYPE = U
NORAD_CAT_ID   = 66664
ELEMENT_SET_NO = 999
REV_AT_EPOCH   = 24
BSTAR          = .17015416E-3
MEAN_MOTION_DOT = .8991E-4
MEAN_MOTION_DDOT = 0

CCSDS_OMM_VERS = 2.0
CREATION_DATE  = 
ORIGINATOR     = 

OBJECT_NAME    = SL-4 R/B
OBJECT_ID      = 2025-275B
CENTER_NAME    = EARTH
REF_FRAME      = TEME
TIME_SYSTEM    = UTC
MEAN_ELEMENT_THEORY = SGP/SGP4

EPOCH          = 2025-11-29T03:56:24.980928
MEAN_MOTION    = 16.39030002
ECCENTRICITY   = .0008837
INCLINATION    = 51.6512
RA_OF_ASC_NODE = 208.7046
ARG_OF_PERICENTER = 66.1669
MEAN_ANOMALY   = 294.0283

EPHEMERIS_TYPE = 0
CLASSIFICATION_TYPE = U
NORAD_CAT_ID   = 66665
ELEMENT_SET_NO = 999
REV_AT_EPOCH   = 30
BSTAR          = .50829E-3
MEAN_MOTION_DOT = .6336541E-1
MEAN_MOTION_DDOT = .12424E-4

